NORAD_CAT_ID,OBJECT_NAME,OBJECT_TYPE,EPOCH,MEAN_MOTION,ECCENTRICITY,INCLINATION,RA_OF_ASC_NODE,ARG_OF_PERICENTER,MEAN_ANOMALY,BSTAR,MEAN_MOTION_DOT,MEAN_MOTION_DDOT,TLE_LINE0,TLE_LINE1,TLE_LINE2,SEMIMAJOR_AXIS,PERIOD,APOGEE,PERIGEE,DECAYED
53701.0,STARLINK-4711,PAYLOAD,2022-12-21 08:17:54,15.0883531,0.0001601,53.2172,115.5322,60.9788,299.1365,-0.00017932,-3.14e-05,0.0,0 STARLINK-4711,1 53701U 22107B   22355.34577481 -.00003140  00000-0 -17932-3 0  9999,2 53701  53.2172 115.5322 0001601  60.9788 299.1365 15.08835310 16829,6917.895,95.438,540.867,538.6519999999998,0.0
53701.0,STARLINK-4711,PAYLOAD,2022-12-21 19:25:36,15.08836982,0.0001474,53.2173,113.45,61.4896,298.6245,-0.00014898,-2.658e-05,0.0,0 STARLINK-4711,1 53701U 22107B   22355.80945301 -.00002658  00000-0 -14898-3 0  9991,2 53701  53.2173 113.4500 0001474  61.4896 298.6245 15.08836982 17647,6917.89,95.438,540.774,538.735,0.0
53701.0,STARLINK-4711,PAYLOAD,2022-12-22 19:16:23,15.08835433,0.0001623,53.217,108.9923,48.3253,311.7878,-4.5193e-06,-3.6000000000000007e-06,0.0,0 STARLINK-4711,1 53701U 22107B   22356.80304909 -.00000360  00000-0 -45193-5 0  9997,2 53701  53.2170 108.9923 0001623  48.3253 311.7878 15.08835433 17042,6917.894,95.438,540.882,538.637,0.0
53701.0,STARLINK-4711,PAYLOAD,2022-12-23 14:21:01,15.08822184,0.0001609,53.2167,105.4244,44.8735,315.2387,0.00013079,1.793e-05,0.0,0 STARLINK-4711,1 53701U 22107B   22357.59793674  .00001793  00000-0  13079-3 0  9990,2 53701  53.2167 105.4244 0001609  44.8735 315.2387 15.08822184 17162,6917.935,95.439,540.913,538.687,0.0
53701.0,STARLINK-4711,PAYLOAD,2022-12-23 19:07:11,15.088274900000002,0.0001602,53.2169,104.5333,44.7372,315.3749,7.8449e-05,9.6e-06,0.0,0 STARLINK-4711,1 53701U 22107B   22357.79665661  .00000960  00000-0  78449-4 0  9994,2 53701  53.2169 104.5333 0001602  44.7372 315.3749 15.08827490 17946,6917.919,95.438,540.8919999999998,538.675,0.0
53701.0,STARLINK-4711,PAYLOAD,2022-12-24 09:25:39,15.08833453,0.0001639,53.2172,101.8551,39.4406,320.6706,1.7227e-05,-1.4e-07,0.0,0 STARLINK-4711,1 53701U 22107B   22358.39281733 -.00000014  00000-0  17227-4 0  9993,2 53701  53.2172 101.8551 0001639  39.4406 320.6706 15.08833453 17286,6917.9,95.438,540.899,538.632,0.0
53701.0,STARLINK-4711,PAYLOAD,2022-12-24 15:47:11,15.08833813,0.0001706,53.2166,100.6652,40.8871,319.2249,2.737400000000001e-05,1.48e-06,0.0,0 STARLINK-4711,1 53701U 22107B   22358.65777711  .00000148  00000-0  27374-4 0  9999,2 53701  53.2166 100.6652 0001706  40.8871 319.2249 15.08833813 18079,6917.899,95.438,540.944,538.5840000000002,0.0
53701.0,STARLINK-4711,PAYLOAD,2022-12-25 09:16:26,15.08829881,0.0001655,53.2172,97.3947,43.5047,316.6076,1.8861e-05,1.2e-07,0.0,0 STARLINK-4711,1 53701U 22107B   22359.38642203  .00000012  00000-0  18861-4 0  9998,2 53701  53.2172  97.3947 0001655  43.5047 316.6076 15.08829881 18184,6917.911,95.438,540.9209999999998,538.631,0.0
53701.0,STARLINK-4711,PAYLOAD,2022-12-25 15:37:59,15.08835062,0.0001694,53.2171,96.2052,44.5835,315.5293,6.286e-05,7.12e-06,0.0,0 STARLINK-4711,1 53701U 22107B   22359.65137841  .00000712  00000-0  62860-4 0  9990,2 53701  53.2171  96.2052 0001694  44.5835 315.5293 15.08835062 17475,6917.895,95.438,540.932,538.589,0.0
53701.0,STARLINK-4711,PAYLOAD,2022-12-25 23:34:55,15.0883081,0.000178,53.2173,94.7186,46.3365,313.7774,-5.1838e-05,-1.113e-05,0.0,0 STARLINK-4711,1 53701U 22107B   22359.98258637 -.00001113  00000-0 -51838-4 0  9994,2 53701  53.2173  94.7186 0001780  46.3365 313.7774 15.08830810 17528,6917.908,95.438,541.005,538.5419999999998,0.0
53701.0,STARLINK-4711,PAYLOAD,2022-12-26 09:07:14,15.08834859,0.0001822,53.2158,92.9328,42.43,317.6833,-1.7945e-06,-3.17e-06,0.0,0 STARLINK-4711,1 53701U 22107B   22360.38002369 -.00000317  00000-0 -17945-5 0  9996,2 53701  53.2158  92.9328 0001822  42.4300 317.6833 15.08834859 18338,6917.896,95.438,541.0219999999998,538.501,0.0
53701.0,STARLINK-4711,PAYLOAD,2022-12-26 15:28:46,15.08837253,0.0001849,53.217,91.7447,45.4236,314.6907,2.9534e-05,1.82e-06,0.0,0 STARLINK-4711,1 53701U 22107B   22360.64498183  .00000182  00000-0  29534-4 0  9992,2 53701  53.2170  91.7447 0001849  45.4236 314.6907 15.08837253 17622,6917.889,95.438,541.033,538.475,0.0
53701.0,STARLINK-4711,PAYLOAD,2022-12-27 08:58:00,15.08849724,0.0002093,53.2168,88.4755,49.9757,310.1418,1.3269e-05,-7.7e-07,0.0,0 STARLINK-4711,1 53701U 22107B   22361.37361509 -.00000077  00000-0  13269-4 0  9996,2 53701  53.2168  88.4755 0002093  49.9757 310.1418 15.08849724 17739,6917.851,95.437,541.164,538.268,0.0
53701.0,STARLINK-4711,PAYLOAD,2022-12-28 05:38:00,15.08854261,0.000199,53.2167,84.609,48.0919,312.0243,0.00011839,1.597e-05,0.0,0 STARLINK-4711,1 53701U 22107B   22362.23472243  .00001597  00000-0  11839-3 0  9997,2 53701  53.2167  84.6090 0001990  48.0919 312.0243 15.08854261 17866,6917.837,95.437,541.078,538.325,0.0
53701.0,STARLINK-4711,PAYLOAD,2022-12-28 13:34:56,15.08838142,0.0001885,53.2173,83.1221,45.4775,314.6371,-3.9775e-05,-9.21e-06,0.0,0 STARLINK-4711,1 53701U 22107B   22362.56593579 -.00000921  00000-0 -39775-4 0  9991,2 53701  53.2173  83.1221 0001885  45.4775 314.6371 15.08838142 17913,6917.886,95.438,541.055,538.447,0.0
53701.0,STARLINK-4711,PAYLOAD,2022-12-29 05:28:49,15.08814717,0.0002041999999999,53.217,80.14699999999998,55.2642,304.8542,-1.0448e-06,-3.05e-06,0.0,0 STARLINK-4711,1 53701U 22107B   22363.22835305 -.00000305  00000-0 -10448-5 0  9994,2 53701  53.2170  80.1470 0002042  55.2642 304.8542 15.08814717 18016,6917.958000000001,95.439,541.235,538.41,0.0
53701.0,STARLINK-4711,PAYLOAD,2022-12-29 11:50:22,15.08820826,0.0002112999999999,53.2169,78.96,46.176,313.9406,-0.00023651,-4.048e-05,0.0,0 STARLINK-4711,1 53701U 22107B   22363.49331678 -.00004048  00000-0 -23651-3 0  9993,2 53701  53.2169  78.9600 0002113  46.1760 313.9406 15.08820826 18808,6917.939,95.439,541.266,538.342,0.0
53701.0,STARLINK-4711,PAYLOAD,2022-12-30 05:19:37,15.08822038,0.0001679,53.2209,75.6891,42.8053,317.307,-7.4852e-05,-1.479e-05,0.0,0 STARLINK-4711,1 53701U 22107B   22364.22195730 -.00001479  00000-0 -74852-4 0  9997,2 53701  53.2209  75.6891 0001679  42.8053 317.3070 15.08822038 18164,6917.935,95.439,540.962,538.639,0.0
53701.0,STARLINK-4711,PAYLOAD,2022-12-30 13:16:31,15.08843913,0.0002032,53.2176,74.2015,34.4138,325.6985,0.00010502,1.384e-05,0.0,0 STARLINK-4711,1 53701U 22107B   22364.55313921  .00001384  00000-0  10502-3 0  9991,2 53701  53.2176  74.2015 0002032  34.4138 325.6985 15.08843913 18213,6917.868,95.437,541.139,538.328,0.0
53701.0,STARLINK-4711,PAYLOAD,2022-12-31 05:10:21,15.08846756,0.0001753,53.2173,71.2271,34.4375,325.673,0.00036415,5.513e-05,0.0,0 STARLINK-4711,1 53701U 22107B   22365.21552486  .00005513  00000-0  36415-3 0  9995,2 53701  53.2173  71.2271 0001753  34.4375 325.6730 15.08846756 18310,6917.86,95.437,540.937,538.512,0.0
53701.0,STARLINK-4711,PAYLOAD,2022-12-31 13:07:17,15.08843385,0.0001913,53.217,69.7404,39.6768,320.4364,0.000299,4.474e-05,0.0,0 STARLINK-4711,1 53701U 22107B   22365.54672825  .00004474  00000-0  29900-3 0  9997,2 53701  53.2170  69.7404 0001913  39.6768 320.4364 15.08843385 19118,6917.87,95.437,541.058,538.4119999999998,0.0
53701.0,STARLINK-4711,PAYLOAD,2022-12-31 14:42:40,15.0884359,0.000193,53.2172,69.4433,40.9963,319.1174,0.00029286,4.376e-05,0.0,0 STARLINK-4711,1 53701U 22107B   22365.61296811  .00004376  00000-0  29286-3 0  9990,2 53701  53.2172  69.4433 0001930  40.9963 319.1174 15.08843590 19123,6917.869000000002,95.437,541.07,538.399,0.0
53701.0,STARLINK-4711,PAYLOAD,2022-12-31 21:04:13,15.08841374,0.000192,53.2177,68.2525,32.8045,327.3066,0.00013466,1.856e-05,0.0,0 STARLINK-4711,1 53701U 22107B   22365.87793373  .00001856  00000-0  13466-3 0  9996,2 53701  53.2177  68.2525 0001920  32.8045 327.3066 15.08841374 18417,6917.876,95.437,541.069,538.413,0.0
53701.0,STARLINK-4711,PAYLOAD,2023-01-01 05:01:10,15.08836829,0.0001857,53.2174,66.7662,30.9987,329.1114,-0.00019518,-3.393e-05,0.0,0 STARLINK-4711,1 53701U 22107B   23001.20915126 -.00003393  00000-0 -19518-3 0  9997,2 53701  53.2174  66.7662 0001857  30.9987 329.1114 15.08836829 18460,6917.89,95.438,541.04,538.47,0.0
53701.0,STARLINK-4711,PAYLOAD,2023-01-01 11:22:43,15.08827761,0.0001948,53.2176,65.5764,26.1053,334.0037,-0.00024664,-4.2100000000000014e-05,0.0,0 STARLINK-4711,1 53701U 22107B   23001.47411946 -.00004210  00000-0 -24664-3 0  9994,2 53701  53.2176  65.5764 0001948  26.1053 334.0037 15.08827761 18503,6917.918000000002,95.438,541.13,538.435,0.0
53701.0,STARLINK-4711,PAYLOAD,2023-01-01 20:55:03,15.0882574,0.0002013,53.2181,63.7916,36.2121,323.9007,-0.0002451,-4.185e-05,0.0,0 STARLINK-4711,1 53701U 22107B   23001.87156307 -.00004185  00000-0 -24510-3 0  9996,2 53701  53.2181  63.7916 0002013  36.2121 323.9007 15.08825740 19319,6917.924,95.438,541.182,538.396,0.0
53701.0,STARLINK-4711,PAYLOAD,2023-01-02 04:51:58,15.08833644,0.0001992,53.2159,62.305,43.1898,316.925,-0.00019774,-3.433e-05,0.0,0 STARLINK-4711,1 53701U 22107B   23002.20275643 -.00003433  00000-0 -19774-3 0  9990,2 53701  53.2159  62.3050 0001992  43.1898 316.9250 15.08833644 18617,6917.9,95.438,541.143,538.387,0.0
53701.0,STARLINK-4711,PAYLOAD,2023-01-02 12:48:53,15.08844277,0.0001981,53.2168,60.8186,38.5774,321.5359,-0.00014703,-2.628e-05,0.0,0 STARLINK-4711,1 53701U 22107B   23002.53394857 -.00002628  00000-0 -14703-3 0  9997,2 53701  53.2168  60.8186 0001981  38.5774 321.5359 15.08844277 18660,6917.8669999999975,95.437,541.1030000000002,538.362,0.0
53701.0,STARLINK-4711,PAYLOAD,2023-01-02 14:24:16,15.0884656,0.0001969,53.217,60.5205,40.368,319.7458,-0.0001414,-2.538e-05,0.0,0 STARLINK-4711,1 53701U 22107B   23002.60018681 -.00002538  00000-0 -14140-3 0  9998,2 53701  53.2170  60.5205 0001969  40.3680 319.7458 15.08846560 19426,6917.86,95.437,541.087,538.363,0.0
